{
    "links": {
        "self": "http://www.neowsapp.com/rest/v1/neo/3728733?api_key=iIulBulltgU6a56xZRHN4H3l9WmuAYTsLGpBGhQ2"
    },
    "id": "3728733",
    "neo_reference_id": "3728733",
    "name": "(2015 SK7)",
    "designation": "2015 SK7",
    "nasa_jpl_url": "http://ssd.jpl.nasa.gov/sbdb.cgi?sstr=3728733",
    "absolute_magnitude_h": 28.9,
    "estimated_diameter": {
        "kilometers": {
            "estimated_diameter_min": 0.004411182,
            "estimated_diameter_max": 0.0098637028
        },
        "meters": {
            "estimated_diameter_min": 4.411182,
            "estimated_diameter_max": 9.8637028131
        },
        "miles": {
            "estimated_diameter_min": 0.0027409806,
            "estimated_diameter_max": 0.0061290189
        },
        "feet": {
            "estimated_diameter_min": 14.4723823528,
            "estimated_diameter_max": 32.3612307372
        }
    },
    "is_potentially_hazardous_asteroid": false,
    "close_approach_data": [
        {
            "close_approach_date": "2006-05-11",
            "close_approach_date_full": "2006-May-11 10:46",
            "epoch_date_close_approach": 1147344360000,
            "relative_velocity": {
                "kilometers_per_second": "26.9394768102",
                "kilometers_per_hour": "96982.1165167189",
                "miles_per_hour": "60260.9156767357"
            },
            "miss_distance": {
                "astronomical": "0.493194025",
                "lunar": "191.852475725",
                "kilometers": "73780775.63672675",
                "miles": "45845248.10825915"
            },
            "orbiting_body": "Earth"
        },
        {
            "close_approach_date": "2015-09-22",
            "close_approach_date_full": "2015-Sep-22 20:38",
            "epoch_date_close_approach": 1442954280000,
            "relative_velocity": {
                "kilometers_per_second": "12.0663781123",
                "kilometers_per_hour": "43438.9612043668",
                "miles_per_hour": "26991.2811994578"
            },
            "miss_distance": {
                "astronomical": "0.0024455234",
                "lunar": "0.9513086026",
                "kilometers": "365845.091675158",
                "miles": "227325.5987388604"
            },
            "orbiting_body": "Moon"
        },
        {
            "close_approach_date": "2015-09-22",
            "close_approach_date_full": "2015-Sep-22 21:44",
            "epoch_date_close_approach": 1442958240000,
            "relative_velocity": {
                "kilometers_per_second": "13.7086384497",
                "kilometers_per_hour": "49351.0984188379",
                "miles_per_hour": "30664.8533480829"
            },
            "miss_distance": {
                "astronomical": "0.0001778761",
                "lunar": "0.0691938029",
                "kilometers": "26609.885683907",
                "miles": "16534.6162436366"
            },
            "orbiting_body": "Earth"
        }
    ],
    "orbital_data": {
        "orbit_id": "9",
        "orbit_determination_date": "2017-04-06 08:31:44",
        "first_observation_date": "2015-09-24",
        "last_observation_date": "2015-10-13",
        "data_arc_in_days": 19,
        "observations_used": 32,
        "orbit_uncertainty": "7",
        "minimum_orbit_intersection": ".000355736",
        "jupiter_tisserand_invariant": "3.251",
        "epoch_osculation": "2459000.5",
        "eccentricity": ".6197225416593405",
        "semi_major_axis": "2.373505861992067",
        "inclination": "2.377407469074703",
        "ascending_node_longitude": "359.5596397722358",
        "orbital_period": "1335.623002076188",
        "perihelion_distance": ".9025907765549995",
        "perihelion_argument": "317.070308771529",
        "aphelion_distance": "3.844420947429135",
        "perihelion_time": "2458591.526976857909",
        "mean_anomaly": "110.2334177401014",
        "mean_motion": ".2695371369318963",
        "equinox": "J2000",
        "orbit_class": {
            "orbit_class_type": "APO",
            "orbit_class_description": "Near-Earth asteroid orbits which cross the Earth’s orbit similar to that of 1862 Apollo",
            "orbit_class_range": "a (semi-major axis) > 1.0 AU; q (perihelion) < 1.017 AU"
        }
    },
    "is_sentry_object": false
}